From: horizons@ssd.jpl.nasa.gov (Horizons Ephemeris System)
Subject: [Horizons] SMALL BODY #C(500@10)_T(NEOWISE (C/2017 C1)) (1/1)
Date: February 23, 2021 at 4:21:07 PM PST

Automated mail xmit by MAIL_REQUEST, PID= 22901 Tue Feb 23 16:21:07 2021
++++++++++++++++++++++++++++++++ (part 1 of 1)  +++++++++++++++++++++++++++++++
*******************************************************************************
JPL/HORIZONS                 NEOWISE (C/2017 C1)           2021-Feb-23 16:21:07
Rec #:90004309 (+COV) Soln.date: 2020-May-26_12:43:56      # obs: 60 (102 days)

IAU76/J2000 helio. ecliptic osc. elements (au, days, deg., period=Julian yrs):

 EPOCH=  2457818.5 ! 2017-Mar-06.0000000 (TDB)    RMSW= n.a.
  EC= .9278155254603973   QR= 1.501754935277586   TP= 2457772.4463717206
  OM= 357.4571908255517   W= 110.204315680309     IN= 65.75224126600266
  A= 20.80440350720673    MA= .4783381532327441   ADIST= 40.10705207913586
  PER= 94.89451642723201  N= .010386546           ANGMOM= .029269393
  DAN= 4.26026            DDN= 2.19253            L= 129.3207642
  B= 58.8342375           MOID= .91358298         TP= 2017-Jan-18.9463717206

Comet physical (GM= km^3/s^2; RAD= km):
  GM= n.a.                RAD= n.a.
  M1=  18.1     M2=  n.a.     k1=  8.5    k2= n.a.     PHCOF= n.a.

COMET comments 
1: soln ref.= JPL#6, data arc: 2017-02-06 to 2017-05-19
2: k1=8.5;
*******************************************************************************


*******************************************************************************
Ephemeris / MAIL_REQUEST Tue Feb 23 16:21:07 2021 Pasadena, USA  / Horizons
*******************************************************************************
Target body name: NEOWISE (C/2017 C1)             {source: JPL#6}
Center body name: Sun (10)                        {source: DE431}
Center-site name: BODY CENTER
*******************************************************************************
Start time      : A.D. 1990-Jan-01 00:00:00.0000 TDB
Stop  time      : A.D. 2020-Dec-31 00:00:00.0000 TDB
Step-size       : 10080 minutes
*******************************************************************************
Center geodetic : 0.00000000,0.00000000,0.0000000 {E-lon(deg),Lat(deg),Alt(km)}
Center cylindric: 0.00000000,0.00000000,0.0000000 {E-lon(deg),Dxy(km),Dz(km)}
Center radii    : 696000.0 x 696000.0 x 696000.0 k{Equator, meridian, pole}    
Small perturbers: Yes                             {source: SB431-N16}
Output units    : AU-D
Output type     : GEOMETRIC cartesian states
Output format   : 6 (LT, range, and range-rate)
Reference frame : Ecliptic of J2000.0
*******************************************************************************
Initial IAU76/J2000 heliocentric ecliptic osculating elements (au, days, deg.):
 EPOCH=  2457818.5 ! 2017-Mar-06.0000000 (TDB)    RMSW= n.a.                  
  EC= .9278155254603973   QR= 1.501754935277586   TP= 2457772.4463717206      
  OM= 357.4571908255517   W= 110.204315680309     IN= 65.75224126600266       
 Equivalent ICRF heliocentric equatorial cartesian coordinates (au, au/d):
  X=-1.272315119586474E+00  Y= 6.609783711482525E-02  Z= 1.007072656851430E+00
 VX=-1.512290740081230E-02 VY= 4.528352295748300E-04 VZ=-1.101339054272813E-02
Comet physical (GM= km^3/s^2; RAD= km):                                        
  GM= n.a.                RAD= n.a.                                           
  M1=  18.1     M2=  n.a.     k1=  8.5    k2= n.a.     PHCOF= n.a.            
*******************************************************************************
           JDTDB,            Calendar Date (TDB),                     LT,                     RG,                     RR,
**************************************************************************************************************************
$$SOE
2454192.500000000, A.D. 2007-Apr-02 00:00:00.0000,  1.208893814824497E-01,  2.093134755099487E+01, -3.478011772121945E-03,
2454199.500000000, A.D. 2007-Apr-09 00:00:00.0000,  1.207486879516503E-01,  2.090698722128496E+01, -3.482083923546294E-03,
2454206.500000000, A.D. 2007-Apr-16 00:00:00.0000,  1.206078296060684E-01,  2.088259835478009E+01, -3.486165196797298E-03,
2454213.500000000, A.D. 2007-Apr-23 00:00:00.0000,  1.204668060707748E-01,  2.085818088656325E+01, -3.490255875048314E-03,
2454220.500000000, A.D. 2007-Apr-30 00:00:00.0000,  1.203256169643738E-01,  2.083373475059784E+01, -3.494355924750508E-03,
2454227.500000000, A.D. 2007-May-07 00:00:00.0000,  1.201842619205796E-01,  2.080925988346345E+01, -3.498464604779465E-03,
2454234.500000000, A.D. 2007-May-14 00:00:00.0000,  1.200427406068993E-01,  2.078475622759070E+01, -3.502581318841973E-03,
2454241.500000000, A.D. 2007-May-21 00:00:00.0000,  1.199010526784003E-01,  2.076022372325636E+01, -3.506707359099132E-03,
2454248.500000000, A.D. 2007-May-28 00:00:00.0000,  1.197591977207798E-01,  2.073566229872614E+01, -3.510844428900369E-03,
2454255.500000000, A.D. 2007-Jun-04 00:00:00.0000,  1.196171752713833E-01,  2.071107187389389E+01, -3.514993207889934E-03,
2454262.500000000, A.D. 2007-Jun-11 00:00:00.0000,  1.194749848530853E-01,  2.068645236614789E+01, -3.519153842277124E-03,
2454269.500000000, A.D. 2007-Jun-18 00:00:00.0000,  1.193326259856863E-01,  2.066180369234416E+01, -3.523326372976841E-03,
2454276.500000000, A.D. 2007-Jun-25 00:00:00.0000,  1.191900981875206E-01,  2.063712576908490E+01, -3.527510835603433E-03,
2454283.500000000, A.D. 2007-Jul-02 00:00:00.0000,  1.190474009755050E-01,  2.061241851272682E+01, -3.531707262925653E-03,
2454290.500000000, A.D. 2007-Jul-09 00:00:00.0000,  1.189045338655288E-01,  2.058768183944876E+01, -3.535915669412662E-03,
2454297.500000000, A.D. 2007-Jul-16 00:00:00.0000,  1.187614963738583E-01,  2.056291566549482E+01, -3.540136010237270E-03,
2454304.500000000, A.D. 2007-Jul-23 00:00:00.0000,  1.186182880218903E-01,  2.053811990799744E+01, -3.544368035662042E-03,
2454311.500000000, A.D. 2007-Jul-30 00:00:00.0000,  1.184749083512373E-01,  2.051329448758927E+01, -3.548610917237161E-03,
2454318.500000000, A.D. 2007-Aug-06 00:00:00.0000,  1.183313569524615E-01,  2.048843933337837E+01, -3.552863168814264E-03,
2454325.500000000, A.D. 2007-Aug-13 00:00:00.0000,  1.181876334629691E-01,  2.046355438258355E+01, -3.557124343792372E-03,
2454332.500000000, A.D. 2007-Aug-20 00:00:00.0000,  1.180437374994923E-01,  2.043863956884405E+01, -3.561395651779241E-03,
2454339.500000000, A.D. 2007-Aug-27 00:00:00.0000,  1.178996686343121E-01,  2.041369481810262E+01, -3.565677795582502E-03,
2454346.500000000, A.D. 2007-Sep-03 00:00:00.0000,  1.177554264310905E-01,  2.038872005480970E+01, -3.569970603255227E-03,
2454353.500000000, A.D. 2007-Sep-10 00:00:00.0000,  1.176110104669625E-01,  2.036371520574846E+01, -3.574273659062344E-03,
2454360.500000000, A.D. 2007-Sep-17 00:00:00.0000,  1.174664203357151E-01,  2.033868020058531E+01, -3.578586573695775E-03,
2454367.500000000, A.D. 2007-Sep-24 00:00:00.0000,  1.173216556453273E-01,  2.031361497144391E+01, -3.582909036560257E-03,
2454374.500000000, A.D. 2007-Oct-01 00:00:00.0000,  1.171767160146778E-01,  2.028851945233516E+01, -3.587240818244653E-03,
2454381.500000000, A.D. 2007-Oct-08 00:00:00.0000,  1.170316010704650E-01,  2.026339357862391E+01, -3.591581756863510E-03,
2454388.500000000, A.D. 2007-Oct-15 00:00:00.0000,  1.168863104454853E-01,  2.023823728673077E+01, -3.595931692674250E-03,
2454395.500000000, A.D. 2007-Oct-22 00:00:00.0000,  1.167408437824382E-01,  2.021305051479114E+01, -3.600290233980005E-03,
2454402.500000000, A.D. 2007-Oct-29 00:00:00.0000,  1.165952007517878E-01,  2.018783320574761E+01, -3.604656349554675E-03,
2454409.500000000, A.D. 2007-Nov-05 00:00:00.0000,  1.164493810724524E-01,  2.016258531093241E+01, -3.609028962954299E-03,
2454416.500000000, A.D. 2007-Nov-12 00:00:00.0000,  1.163033844727100E-01,  2.013730678329832E+01, -3.613408877292072E-03,
2454423.500000000, A.D. 2007-Nov-19 00:00:00.0000,  1.161572106222180E-01,  2.011199756564831E+01, -3.617797750688464E-03,
2454430.500000000, A.D. 2007-Nov-26 00:00:00.0000,  1.160108591402129E-01,  2.008665759205521E+01, -3.622196351052426E-03,
2454437.500000000, A.D. 2007-Dec-03 00:00:00.0000,  1.158643296279884E-01,  2.006128679348515E+01, -3.626604915008352E-03,
2454444.500000000, A.D. 2007-Dec-10 00:00:00.0000,  1.157176216790705E-01,  2.003588509955937E+01, -3.631023632892368E-03,
2454451.500000000, A.D. 2007-Dec-17 00:00:00.0000,  1.155707348778412E-01,  2.001045243831583E+01, -3.635452771371774E-03,
2454458.500000000, A.D. 2007-Dec-24 00:00:00.0000,  1.154236687963303E-01,  1.998498873565378E+01, -3.639892671359168E-03,
2454465.500000000, A.D. 2007-Dec-31 00:00:00.0000,  1.152764229917186E-01,  1.995949391490146E+01, -3.644343720984804E-03,
2454472.500000000, A.D. 2008-Jan-07 00:00:00.0000,  1.151289970052939E-01,  1.993396789663533E+01, -3.648806305993712E-03,
2454479.500000000, A.D. 2008-Jan-14 00:00:00.0000,  1.149813903648495E-01,  1.990841059909532E+01, -3.653280670372754E-03,
2454486.500000000, A.D. 2008-Jan-21 00:00:00.0000,  1.148336025968759E-01,  1.988282194029577E+01, -3.657766553551153E-03,
2454493.500000000, A.D. 2008-Jan-28 00:00:00.0000,  1.146856332544062E-01,  1.985720184284681E+01, -3.662262956502434E-03,
2454500.500000000, A.D. 2008-Feb-04 00:00:00.0000,  1.145374819242081E-01,  1.983155023519945E+01, -3.666769604821099E-03,
2454507.500000000, A.D. 2008-Feb-11 00:00:00.0000,  1.143891481643271E-01,  1.980586704083167E+01, -3.671288035014806E-03,
2454514.500000000, A.D. 2008-Feb-18 00:00:00.0000,  1.142406314691260E-01,  1.978015217219509E+01, -3.675819505749898E-03,
2454521.500000000, A.D. 2008-Feb-25 00:00:00.0000,  1.140919313036886E-01,  1.975440553667182E+01, -3.680364286332861E-03,
2454528.500000000, A.D. 2008-Mar-03 00:00:00.0000,  1.139430471314256E-01,  1.972862704135434E+01, -3.684922279927346E-03,
2454535.500000000, A.D. 2008-Mar-10 00:00:00.0000,  1.137939784211074E-01,  1.970281659426308E+01, -3.689493341231843E-03,
